{"type": "FeatureCollection", "generated_at": "2026-02-13", "features": [{"type": "Feature", "geometry": {"type": "LineString", "coordinates": [[140.771582, 40.811821], [140.768256, 40.811113], [140.768896, 40.813142], [140.772284, 40.813374], [140.771222, 40.816271], [140.76859, 40.817062], [140.762971, 40.815789], [140.757556, 40.814985], [140.755666, 40.817325], [140.754969, 40.81947]]}, "properties": {"id": "koyanagi_sakuragawa_suspend", "name": "小柳団地線（区間運休・迂回）", "status": "区間運休・迂回", "from_stop": "桜川七丁目", "to_stop": "平和公園前", "detour_notice": "佃〜（藤田組通り迂回）〜栄町二丁目で迂回運行。松森・西佃・福田・花園二丁目・栄町二丁目でも乗降可能。", "stops": [{"name": "桜川七丁目", "lng": 140.771582, "lat": 40.811821}, {"name": "桜川六丁目", "lng": 140.768256, "lat": 40.811113}, {"name": "桜川中央", "lng": 140.768896, "lat": 40.813142}, {"name": "桜川福祉館前", "lng": 140.772284, "lat": 40.813374}, {"name": "桜川三丁目", "lng": 140.771222, "lat": 40.816271}, {"name": "桜川一丁目", "lng": 140.76859, "lat": 40.817062}, {"name": "奥野二丁目", "lng": 140.762971, "lat": 40.815789}, {"name": "自動車会議所前", "lng": 140.757556, "lat": 40.814985}, {"name": "市民病院通り", "lng": 140.755666, "lat": 40.817325}, {"name": "平和公園前", "lng": 140.754969, "lat": 40.81947}]}}, {"type": "Feature", "geometry": {"type": "LineString", "coordinates": [[140.806616, 40.793512], [140.812277, 40.791568], [140.82248, 40.790219]]}, "properties": {"id": "sawayama_suspend", "name": "沢山線（区間運休）", "status": "区間運休", "from_stop": "戸山団地南", "to_stop": "沢山", "detour_notice": "戸山団地北赤坂市民館前を起終点に変更して運行。", "stops": [{"name": "戸山団地南", "lng": 140.806616, "lat": 40.793512}, {"name": "藤老人ホーム前", "lng": 140.812277, "lat": 40.791568}, {"name": "沢山", "lng": 140.82248, "lat": 40.790219}]}}, {"type": "Feature", "geometry": {"type": "LineString", "coordinates": [[140.754016, 40.809442], [140.755521, 40.805334], [140.748352, 40.805561], [140.746214, 40.802564], [140.749119, 40.800137], [140.742257, 40.800537], [140.74044, 40.801101], [140.741177, 40.807418]]}, "properties": {"id": "aba_suspend_detour", "name": "青森朝日放送線（区間運休・迂回）", "status": "区間運休・迂回", "from_stop": "サンロード青森前", "to_stop": "大野十文字", "detour_notice": "青森山田中学・高校前停留所の通りを迂回運行。", "stops": [{"name": "サンロード青森前", "lng": 140.754016, "lat": 40.809442}, {"name": "DCM青森中央店前", "lng": 140.755521, "lat": 40.805334}, {"name": "青森山田中学・高校前", "lng": 140.748352, "lat": 40.805561}, {"name": "大野小学校通り", "lng": 140.746214, "lat": 40.802564}, {"name": "シーナシーナ青森前", "lng": 140.749119, "lat": 40.800137}, {"name": "中央高校前", "lng": 140.742257, "lat": 40.800537}, {"name": "大野若宮", "lng": 140.74044, "lat": 40.801101}, {"name": "大野十文字", "lng": 140.741177, "lat": 40.807418}]}}]}