{"type": "FeatureCollection", "features": [{"type": "Feature", "geometry": {"type": "LineString", "coordinates": [[140.8022, 40.80666], [140.80186, 40.8062], [140.80161, 40.806], [140.80142, 40.80591], [140.8012, 40.80584], [140.80092, 40.80577], [140.80059, 40.80568], [140.8003, 40.80556], [140.80014, 40.80546], [140.79985, 40.80522]]}, "properties": {"id": "371", "status": "除雪済み", "color": "#16a085", "source": "国交省除雪管理システム"}}, {"type": "Feature", "geometry": {"type": "LineString", "coordinates": [[140.79985, 40.80522], [140.79918, 40.80447], [140.79906, 40.80433]]}, "properties": {"id": "371", "status": "作業中", "color": "#f1c40f", "source": "国交省除雪管理システム"}}]}